[{"OBJECT_NAME":"STARLINK-31066","OBJECT_ID":"2023-211K","EPOCH":"2026-03-08T11:10:15.364704","MEAN_MOTION":15.26815036,"ECCENTRICITY":0.00057276,"INCLINATION":43.0016,"RA_OF_ASC_NODE":237.9691,"ARG_OF_PERICENTER":306.2936,"MEAN_ANOMALY":53.7386,"EPHEMERIS_TYPE":0,"CLASSIFICATION_TYPE":"U","NORAD_CAT_ID":58676,"ELEMENT_SET_NO":999,"REV_AT_EPOCH":12184,"BSTAR":0.00037151144,"MEAN_MOTION_DOT":9.744e-5,"MEAN_MOTION_DDOT":0},{"OBJECT_NAME":"CZ-4B DEB","OBJECT_ID":"2008-053J","EPOCH":"2026-03-09T11:59:22.469568","MEAN_MOTION":15.1637526,"ECCENTRICITY":0.00601661,"INCLINATION":97.7872,"RA_OF_ASC_NODE":170.5072,"ARG_OF_PERICENTER":304.792,"MEAN_ANOMALY":54.7659,"EPHEMERIS_TYPE":0,"CLASSIFICATION_TYPE":"U","NORAD_CAT_ID":35573,"ELEMENT_SET_NO":999,"REV_AT_EPOCH":91868,"BSTAR":0.0017688276,"MEAN_MOTION_DOT":0.00036031,"MEAN_MOTION_DDOT":0}]
